ONEWEB-0316             
1 49102U 21075AD  25257.12016620  .00000010  00000+0 -84173-5 0  9999
2 49102  87.9190  30.2865 0001866  94.3368 265.7977 13.18687170200827
ONEWEB-0317             
1 49103U 21075AE  25256.91942176 -.00000191  00000+0 -56515-3 0  9998
2 49103  87.8899  45.5460 0001205 122.2979 237.8267 13.12445296198956
ONEWEB-0318             
1 49104U 21075AF  25257.11686247 -.00001825  00000+0 -46609-2 0  9993
2 49104  87.9193  30.2738 0002039  96.2373 263.8992 13.18694943200788
ONEWEB-0319             
1 49105U 21075AG  25257.22136448  .00000029  00000+0  40571-4 0  9996
2 49105  87.9040  60.7714 0002168  91.9104 268.2276 13.17649361197264
ONEWEB-0323             
1 49106U 21075AH  25257.13840077 -.00000499  00000+0 -14224-2 0  9994
2 49106  87.8904  45.4887 0002424  95.4180 264.7226 13.12443416198346
ONEWEB-0329             
1 49107U 21075AJ  25257.15387174  .00000055  00000+0  10847-3 0  9995
2 49107  87.9013  60.7877 0001530 128.7511 231.3757 13.17650645197238
ONEWEB-0330             
1 49108U 21075AK  25257.15470178 -.00000890  00000+0 -23265-2 0  9999
2 49108  87.9043  60.7921 0001555 132.2958 227.8305 13.17652772197270
ONEWEB-0292             
1 49186U 21083A   25257.02177579  .00000285  00000+0  74609-3 0  9994
2 49186  87.9029  15.1289 0001895  97.9230 262.2114 13.13470850194671
ONEWEB-0303             
1 49187U 21083B   25257.11355229 -.00000039  00000+0 -13110-3 0  9994
2 49187  87.9190  30.2747 0001946  95.7848 264.3506 13.18686775193594
ONEWEB-0306             
1 49188U 21083C   25257.17953204  .00000056  00000+0  10911-3 0  9991
2 49188  87.9192  30.2474 0001557 101.2398 258.8910 13.18687208193640
ONEWEB-0307             
1 49189U 21083D   25257.09202494  .00000319  00000+0  83843-3 0  9997
2 49189  87.9026  15.1124 0001694 110.7131 249.4180 13.13468626194689
ONEWEB-0320             
1 49190U 21083E   25257.11025740 -.00000002  00000+0 -37060-4 0  9991
2 49190  87.9190  30.2891 0001820  97.5157 262.6182 13.18685485193590
ONEWEB-0321             
1 49191U 21083F   25257.21894278  .00000100  00000+0  21489-3 0  9997
2 49191  87.9268 329.4513 0001592 104.9760 255.1549 13.20771585200403
ONEWEB-0322             
1 49192U 21083G   25257.08778936  .00000385  00000+0  10206-2 0  9994
2 49192  87.9031  15.1099 0001371 106.7090 253.4189 13.13472283194678
ONEWEB-0324             
1 49193U 21083H   25257.09706339 -.00000050  00000+0 -15845-3 0  9990
2 49193  87.9190  30.2714 0001830 102.3818 257.7519 13.18685657193610
ONEWEB-0325             
1 49194U 21083J   25257.10035074 -.00000177  00000+0 -48144-3 0  9992
2 49194  87.9190  30.2883 0001655  97.4001 262.7319 13.18685692193625
ONEWEB-0326             
1 49195U 21083K   25257.11534479  .00000019  00000+0  14890-4 0  9992
2 49195  87.9188  30.2733 0002005  91.2820 268.8542 13.18684509193618
