[{"OBJECT_NAME":"ONEWEB-0316","OBJECT_ID":"2021-075AD","EPOCH":"2025-09-14T02:53:02.359680","MEAN_MOTION":13.1868717,"ECCENTRICITY":0.0001866,"INCLINATION":87.919,"RA_OF_ASC_NODE":30.2865,"ARG_OF_PERICENTER":94.3368,"MEAN_ANOMALY":265.7977,"EPHEMERIS_TYPE":0,"CLASSIFICATION_TYPE":"U","NORAD_CAT_ID":49102,"ELEMENT_SET_NO":999,"REV_AT_EPOCH":20082,"BSTAR":-8.41727e-6,"MEAN_MOTION_DOT":1.0e-7,"MEAN_MOTION_DDOT":0},{"OBJECT_NAME":"ONEWEB-0317","OBJECT_ID":"2021-075AE","EPOCH":"2025-09-13T22:03:58.040064","MEAN_MOTION":13.12445296,"ECCENTRICITY":0.00012055,"INCLINATION":87.8899,"RA_OF_ASC_NODE":45.546,"ARG_OF_PERICENTER":122.2979,"MEAN_ANOMALY":237.8267,"EPHEMERIS_TYPE":0,"CLASSIFICATION_TYPE":"U","NORAD_CAT_ID":49103,"ELEMENT_SET_NO":999,"REV_AT_EPOCH":19895,"BSTAR":-0.00056515486,"MEAN_MOTION_DOT":-1.91e-6,"MEAN_MOTION_DDOT":0},{"OBJECT_NAME":"ONEWEB-0318","OBJECT_ID":"2021-075AF","EPOCH":"2025-09-14T02:48:16.917408","MEAN_MOTION":13.18694943,"ECCENTRICITY":0.00020394,"INCLINATION":87.9193,"RA_OF_ASC_NODE":30.2738,"ARG_OF_PERICENTER":96.2373,"MEAN_ANOMALY":263.8992,"EPHEMERIS_TYPE":0,"CLASSIFICATION_TYPE":"U","NORAD_CAT_ID":49104,"ELEMENT_SET_NO":999,"REV_AT_EPOCH":20078,"BSTAR":-0.0046609236,"MEAN_MOTION_DOT":-1.825e-5,"MEAN_MOTION_DDOT":0},{"OBJECT_NAME":"ONEWEB-0319","OBJECT_ID":"2021-075AG","EPOCH":"2025-09-14T05:18:45.891072","MEAN_MOTION":13.17649361,"ECCENTRICITY":0.00021684,"INCLINATION":87.904,"RA_OF_ASC_NODE":60.7714,"ARG_OF_PERICENTER":91.9104,"MEAN_ANOMALY":268.2276,"EPHEMERIS_TYPE":0,"CLASSIFICATION_TYPE":"U","NORAD_CAT_ID":49105,"ELEMENT_SET_NO":999,"REV_AT_EPOCH":19726,"BSTAR":4.0571125e-5,"MEAN_MOTION_DOT":2.9e-7,"MEAN_MOTION_DDOT":0},{"OBJECT_NAME":"ONEWEB-0323","OBJECT_ID":"2021-075AH","EPOCH":"2025-09-14T03:19:17.826528","MEAN_MOTION":13.12443416,"ECCENTRICITY":0.00024246,"INCLINATION":87.8904,"RA_OF_ASC_NODE":45.4887,"ARG_OF_PERICENTER":95.418,"MEAN_ANOMALY":264.7226,"EPHEMERIS_TYPE":0,"CLASSIFICATION_TYPE":"U","NORAD_CAT_ID":49106,"ELEMENT_SET_NO":999,"REV_AT_EPOCH":19834,"BSTAR":-0.0014224423,"MEAN_MOTION_DOT":-4.99e-6,"MEAN_MOTION_DDOT":0},{"OBJECT_NAME":"ONEWEB-0329","OBJECT_ID":"2021-075AJ","EPOCH":"2025-09-14T03:41:34.518336","MEAN_MOTION":13.17650645,"ECCENTRICITY":0.00015305,"INCLINATION":87.9013,"RA_OF_ASC_NODE":60.7877,"ARG_OF_PERICENTER":128.7511,"MEAN_ANOMALY":231.3757,"EPHEMERIS_TYPE":0,"CLASSIFICATION_TYPE":"U","NORAD_CAT_ID":49107,"ELEMENT_SET_NO":999,"REV_AT_EPOCH":19723,"BSTAR":0.0001084719,"MEAN_MOTION_DOT":5.5e-7,"MEAN_MOTION_DDOT":0},{"OBJECT_NAME":"ONEWEB-0330","OBJECT_ID":"2021-075AK","EPOCH":"2025-09-14T03:42:46.233792","MEAN_MOTION":13.17652772,"ECCENTRICITY":0.00015559,"INCLINATION":87.9043,"RA_OF_ASC_NODE":60.7921,"ARG_OF_PERICENTER":132.2958,"MEAN_ANOMALY":227.8305,"EPHEMERIS_TYPE":0,"CLASSIFICATION_TYPE":"U","NORAD_CAT_ID":49108,"ELEMENT_SET_NO":999,"REV_AT_EPOCH":19727,"BSTAR":-0.0023264912,"MEAN_MOTION_DOT":-8.9e-6,"MEAN_MOTION_DDOT":0},{"OBJECT_NAME":"ONEWEB-0292","OBJECT_ID":"2021-083A","EPOCH":"2025-09-14T00:31:21.428256","MEAN_MOTION":13.1347085,"ECCENTRICITY":0.00018958,"INCLINATION":87.9029,"RA_OF_ASC_NODE":15.1289,"ARG_OF_PERICENTER":97.923,"MEAN_ANOMALY":262.2114,"EPHEMERIS_TYPE":0,"CLASSIFICATION_TYPE":"U","NORAD_CAT_ID":49186,"ELEMENT_SET_NO":999,"REV_AT_EPOCH":19467,"BSTAR":0.00074608528,"MEAN_MOTION_DOT":2.85e-6,"MEAN_MOTION_DDOT":0},{"OBJECT_NAME":"ONEWEB-0303","OBJECT_ID":"2021-083B","EPOCH":"2025-09-14T02:43:30.917856","MEAN_MOTION":13.18686775,"ECCENTRICITY":0.00019464,"INCLINATION":87.919,"RA_OF_ASC_NODE":30.2747,"ARG_OF_PERICENTER":95.7848,"MEAN_ANOMALY":264.3506,"EPHEMERIS_TYPE":0,"CLASSIFICATION_TYPE":"U","NORAD_CAT_ID":49187,"ELEMENT_SET_NO":999,"REV_AT_EPOCH":19359,"BSTAR":-0.00013109773,"MEAN_MOTION_DOT":-3.9e-7,"MEAN_MOTION_DDOT":0},{"OBJECT_NAME":"ONEWEB-0306","OBJECT_ID":"2021-083C","EPOCH":"2025-09-14T04:18:31.568256","MEAN_MOTION":13.18687208,"ECCENTRICITY":0.00015571,"INCLINATION":87.9192,"RA_OF_ASC_NODE":30.2474,"ARG_OF_PERICENTER":101.2398,"MEAN_ANOMALY":258.891,"EPHEMERIS_TYPE":0,"CLASSIFICATION_TYPE":"U","NORAD_CAT_ID":49188,"ELEMENT_SET_NO":999,"REV_AT_EPOCH":19364,"BSTAR":0.00010910622,"MEAN_MOTION_DOT":5.6e-7,"MEAN_MOTION_DDOT":0},{"OBJECT_NAME":"ONEWEB-0307","OBJECT_ID":"2021-083D","EPOCH":"2025-09-14T02:12:30.954816","MEAN_MOTION":13.13468626,"ECCENTRICITY":0.00016946,"INCLINATION":87.9026,"RA_OF_ASC_NODE":15.1124,"ARG_OF_PERICENTER":110.7131,"MEAN_ANOMALY":249.418,"EPHEMERIS_TYPE":0,"CLASSIFICATION_TYPE":"U","NORAD_CAT_ID":49189,"ELEMENT_SET_NO":999,"REV_AT_EPOCH":19468,"BSTAR":0.00083842809,"MEAN_MOTION_DOT":3.19e-6,"MEAN_MOTION_DDOT":0},{"OBJECT_NAME":"ONEWEB-0320","OBJECT_ID":"2021-083E","EPOCH":"2025-09-14T02:38:46.239360","MEAN_MOTION":13.18685485,"ECCENTRICITY":0.00018205,"INCLINATION":87.919,"RA_OF_ASC_NODE":30.2891,"ARG_OF_PERICENTER":97.5157,"MEAN_ANOMALY":262.6182,"EPHEMERIS_TYPE":0,"CLASSIFICATION_TYPE":"U","NORAD_CAT_ID":49190,"ELEMENT_SET_NO":999,"REV_AT_EPOCH":19359,"BSTAR":-3.7060398e-5,"MEAN_MOTION_DOT":-2.0e-8,"MEAN_MOTION_DDOT":0},{"OBJECT_NAME":"ONEWEB-0321","OBJECT_ID":"2021-083F","EPOCH":"2025-09-14T05:15:16.656192","MEAN_MOTION":13.20771585,"ECCENTRICITY":0.00015923,"INCLINATION":87.9268,"RA_OF_ASC_NODE":329.4513,"ARG_OF_PERICENTER":104.976,"MEAN_ANOMALY":255.1549,"EPHEMERIS_TYPE":0,"CLASSIFICATION_TYPE":"U","NORAD_CAT_ID":49191,"ELEMENT_SET_NO":999,"REV_AT_EPOCH":20040,"BSTAR":0.00021488844,"MEAN_MOTION_DOT":1.0e-6,"MEAN_MOTION_DDOT":0},{"OBJECT_NAME":"ONEWEB-0322","OBJECT_ID":"2021-083G","EPOCH":"2025-09-14T02:06:25.000704","MEAN_MOTION":13.13472283,"ECCENTRICITY":0.0001371,"INCLINATION":87.9031,"RA_OF_ASC_NODE":15.1099,"ARG_OF_PERICENTER":106.709,"MEAN_ANOMALY":253.4189,"EPHEMERIS_TYPE":0,"CLASSIFICATION_TYPE":"U","NORAD_CAT_ID":49192,"ELEMENT_SET_NO":999,"REV_AT_EPOCH":19467,"BSTAR":0.0010206252,"MEAN_MOTION_DOT":3.85e-6,"MEAN_MOTION_DDOT":0},{"OBJECT_NAME":"ONEWEB-0324","OBJECT_ID":"2021-083H","EPOCH":"2025-09-14T02:19:46.276896","MEAN_MOTION":13.18685657,"ECCENTRICITY":0.000183,"INCLINATION":87.919,"RA_OF_ASC_NODE":30.2714,"ARG_OF_PERICENTER":102.3818,"MEAN_ANOMALY":257.7519,"EPHEMERIS_TYPE":0,"CLASSIFICATION_TYPE":"U","NORAD_CAT_ID":49193,"ELEMENT_SET_NO":999,"REV_AT_EPOCH":19361,"BSTAR":-0.00015844611,"MEAN_MOTION_DOT":-5.0e-7,"MEAN_MOTION_DDOT":0},{"OBJECT_NAME":"ONEWEB-0325","OBJECT_ID":"2021-083J","EPOCH":"2025-09-14T02:24:30.303936","MEAN_MOTION":13.18685692,"ECCENTRICITY":0.00016554,"INCLINATION":87.919,"RA_OF_ASC_NODE":30.2883,"ARG_OF_PERICENTER":97.4001,"MEAN_ANOMALY":262.7319,"EPHEMERIS_TYPE":0,"CLASSIFICATION_TYPE":"U","NORAD_CAT_ID":49194,"ELEMENT_SET_NO":999,"REV_AT_EPOCH":19362,"BSTAR":-0.0004814391,"MEAN_MOTION_DOT":-1.77e-6,"MEAN_MOTION_DDOT":0},{"OBJECT_NAME":"ONEWEB-0326","OBJECT_ID":"2021-083K","EPOCH":"2025-09-14T02:46:05.789856","MEAN_MOTION":13.18684509,"ECCENTRICITY":0.00020053,"INCLINATION":87.9188,"RA_OF_ASC_NODE":30.2733,"ARG_OF_PERICENTER":91.282,"MEAN_ANOMALY":268.8542,"EPHEMERIS_TYPE":0,"CLASSIFICATION_TYPE":"U","NORAD_CAT_ID":49195,"ELEMENT_SET_NO":999,"REV_AT_EPOCH":19361,"BSTAR":1.4890245e-5,"MEAN_MOTION_DOT":1.9e-7,"MEAN_MOTION_DDOT":0}]
